{"type": "FeatureCollection", "features": [ {"type": "Feature", "properties": {"norad_id": 36255, "name": "FENGYUN 1C DEB", "group": "fengyun-1c-debris", "lat": -70.23233808787784, "lon": -60.762304095918516, "alt_km": 809.4355043923588, "timestamp": "2025-12-16T15:45:51.334326+00:00", "meta": {"OBJECT_NAME": "FENGYUN 1C DEB", "OBJECT_ID": "1999-025DWG", "EPOCH": "2025-12-14T14:32:10.078944", "MEAN_MOTION": 14.36578899, "ECCENTRICITY": 0.0063973, "INCLINATION": 99.4343, "RA_OF_ASC_NODE": 269.434, "ARG_OF_PERICENTER": 158.034, "MEAN_ANOMALY": 326.8246, "EPHEMERIS_TYPE": 0, "CLASSIFICATION_TYPE": "U", "NORAD_CAT_ID": 36255, "ELEMENT_SET_NO": 999, "REV_AT_EPOCH": 64037, "BSTAR": 0.00075510086, "MEAN_MOTION_DOT": 2.221e-05, "MEAN_MOTION_DDOT": 0}, "tle": {"line1": "1 36255U 99025DWG 25348.60567221  .00002221  00000+0  75510-3 0  9994", "line2": "2 36255  99.4343 269.4340 0063973 158.0340 326.8246 14.36578899640373"}}, "geometry": {"type": "Point", "coordinates": [-60.762304095918516, -70.23233808787784]}}, {"type": "Feature", "properties": {"norad_id": 36258, "name": "FENGYUN 1C DEB", "group": "fengyun-1c-debris", "lat": -48.51801684818795, "lon": -169.81289348171458, "alt_km": 703.5986313671328, "timestamp": "2025-12-16T15:45:51.334336+00:00", "meta": {"OBJECT_NAME": "FENGYUN 1C DEB", "OBJECT_ID": "1999-025DWK", "EPOCH": "2025-12-14T09:00:45.496512", "MEAN_MOTION": 14.74861864, "ECCENTRICITY": 0.01735523, "INCLINATION": 99.0873, "RA_OF_ASC_NODE": 18.0571, "ARG_OF_PERICENTER": 120.6153, "MEAN_ANOMALY": 241.2297, "EPHEMERIS_TYPE": 0, "CLASSIFICATION_TYPE": "U", "NORAD_CAT_ID": 36258, "ELEMENT_SET_NO": 999, "REV_AT_EPOCH": 90846, "BSTAR": 0.00036659778, "MEAN_MOTION_DOT": 3.064e-05, "MEAN_MOTION_DDOT": 0}, "tle": {"line1": "1 36258U 99025DWK 25348.37552658  .00003064  00000+0  36660-3 0  9998", "line2": "2 36258  99.0873  18.0571 0173552 120.6153 241.2297 14.74861864908468"}}, "geometry": {"type": "Point", "coordinates": [-169.81289348171458, -48.51801684818795]}}, {"type": "Feature", "properties": {"norad_id": 36260, "name": "FENGYUN 1C DEB", "group": "fengyun-1c-debris", "lat": -77.76784903095809, "lon": 128.04742605985845, "alt_km": 838.3904683766104, "timestamp": "2025-12-16T15:45:51.334345+00:00", "meta": {"OBJECT_NAME": "FENGYUN 1C DEB", "OBJECT_ID": "1999-025DWM", "EPOCH": "2025-12-15T06:17:49.827264", "MEAN_MOTION": 14.15374804, "ECCENTRICITY": 0.00150327, "INCLINATION": 98.6614, "RA_OF_ASC_NODE": 351.3694, "ARG_OF_PERICENTER": 241.8385, "MEAN_ANOMALY": 118.127, "EPHEMERIS_TYPE": 0, "CLASSIFICATION_TYPE": "U", "NORAD_CAT_ID": 36260, "ELEMENT_SET_NO": 999, "REV_AT_EPOCH": 87844, "BSTAR": 0.00020045426, "MEAN_MOTION_DOT": 3.48e-06, "MEAN_MOTION_DDOT": 0}, "tle": {"line1": "1 36260U 99025DWM 25349.26238226  .00000348  00000+0  20045-3 0  9994", "line2": "2 36260  98.6614 351.3694 0015032 241.8385 118.1270 14.15374804878444"}}, "geometry": {"type": "Point", "coordinates": [128.04742605985845, -77.76784903095809]}}, {"type": "Feature", "properties": {"norad_id": 36261, "name": "FENGYUN 1C DEB", "group": "fengyun-1c-debris", "lat": 56.89819561448378, "lon": 81.3484664833908, "alt_km": 925.0807874623642, "timestamp": "2025-12-16T15:45:51.334355+00:00", "meta": {"OBJECT_NAME": "FENGYUN 1C DEB", "OBJECT_ID": "1999-025DWN", "EPOCH": "2025-12-13T22:57:12.812256", "MEAN_MOTION": 13.45480991, "ECCENTRICITY": 0.03556009, "INCLINATION": 101.3652, "RA_OF_ASC_NODE": 240.3219, "ARG_OF_PERICENTER": 72.4151, "MEAN_ANOMALY": 291.5485, "EPHEMERIS_TYPE": 0, "CLASSIFICATION_TYPE": "U", "NORAD_CAT_ID": 36261, "ELEMENT_SET_NO": 999, "REV_AT_EPOCH": 84449, "BSTAR": 0.00068349955, "MEAN_MOTION_DOT": 5.4e-06, "MEAN_MOTION_DDOT": 0}, "tle": {"line1": "1 36261U 99025DWN 25347.95639829  .00000540  00000+0  68350-3 0  9998", "line2": "2 36261 101.3652 240.3219 0355600  72.4151 291.5485 13.45480991844495"}}, "geometry": {"type": "Point", "coordinates": [81.3484664833908, 56.89819561448378]}}, {"type": "Feature", "properties": {"norad_id": 36262, "name": "FENGYUN 1C DEB", "group": "fengyun-1c-debris", "lat": -49.69161137561517, "lon": 40.54031525195868, "alt_km": 770.0459385190798, "timestamp": "2025-12-16T15:45:51.334366+00:00", "meta": {"OBJECT_NAME": "FENGYUN 1C DEB", "OBJECT_ID": "1999-025DWP", "EPOCH": "2025-12-08T09:54:26.531712", "MEAN_MOTION": 14.27796215, "ECCENTRICITY": 0.00599528, "INCLINATION": 98.9618, "RA_OF_ASC_NODE": 222.8075, "ARG_OF_PERICENTER": 288.1373, "MEAN_ANOMALY": 71.3285, "EPHEMERIS_TYPE": 0, "CLASSIFICATION_TYPE": "U", "NORAD_CAT_ID": 36262, "ELEMENT_SET_NO": 999, "REV_AT_EPOCH": 89435, "BSTAR": 0.0005578287, "MEAN_MOTION_DOT": 1.358e-05, "MEAN_MOTION_DDOT": 0}, "tle": {"line1": "1 36262U 99025DWP 25342.41280708  .00001358  00000+0  55783-3 0  9997", "line2": "2 36262  98.9618 222.8075 0059952 288.1373  71.3285 14.27796215894359"}}, "geometry": {"type": "Point", "coordinates": [40.54031525195868, -49.69161137561517]}}, {"type": "Feature", "properties": {"norad_id": 36263, "name": "FENGYUN 1C DEB", "group": "fengyun-1c-debris", "lat": -65.03523817365941, "lon": -108.14867662878862, "alt_km": 727.2430646986377, "timestamp": "2025-12-16T15:45:51.334376+00:00", "meta": {"OBJECT_NAME": "FENGYUN 1C DEB", "OBJECT_ID": "1999-025DWQ", "EPOCH": "2025-12-14T02:36:43.363008", "MEAN_MOTION": 14.45667269, "ECCENTRICITY": 0.00359904, "INCLINATION": 99.0019, "RA_OF_ASC_NODE": 229.2427, "ARG_OF_PERICENTER": 260.9773, "MEAN_ANOMALY": 98.7343, "EPHEMERIS_TYPE": 0, "CLASSIFICATION_TYPE": "U", "NORAD_CAT_ID": 36263, "ELEMENT_SET_NO": 999, "REV_AT_EPOCH": 88005, "BSTAR": 0.0021495067, "MEAN_MOTION_DOT": 7.623e-05, "MEAN_MOTION_DDOT": 0}, "tle": {"line1": "1 36263U 99025DWQ 25348.10883522  .00007623  00000+0  21495-2 0  9996", "line2": "2 36263  99.0019 229.2427 0035990 260.9773  98.7343 14.45667269880053"}}, "geometry": {"type": "Point", "coordinates": [-108.14867662878862, -65.03523817365941]}}, {"type": "Feature", "properties": {"norad_id": 36267, "name": "FENGYUN 1C DEB", "group": "fengyun-1c-debris", "lat": -2.586726672473039, "lon": -61.75837932411845, "alt_km": 950.4714548591182, "timestamp": "2025-12-16T15:45:51.334385+00:00", "meta": {"OBJECT_NAME": "FENGYUN 1C DEB", "OBJECT_ID": "1999-025DWU", "EPOCH": "2025-12-15T15:04:20.476128", "MEAN_MOTION": 14.091068, "ECCENTRICITY": 0.01263814, "INCLINATION": 98.5582, "RA_OF_ASC_NODE": 296.8743, "ARG_OF_PERICENTER": 202.2245, "MEAN_ANOMALY": 338.6231, "EPHEMERIS_TYPE": 0, "CLASSIFICATION_TYPE": "U", "NORAD_CAT_ID": 36267, "ELEMENT_SET_NO": 999, "REV_AT_EPOCH": 86570, "BSTAR": 0.00076282316, "MEAN_MOTION_DOT": 1.384e-05, "MEAN_MOTION_DDOT": 0}, "tle": {"line1": "1 36267U 99025DWU 25349.62801477  .00001384  00000+0  76282-3 0  9990", "line2": "2 36267  98.5582 296.8743 0126381 202.2245 338.6231 14.09106800865701"}}, "geometry": {"type": "Point", "coordinates": [-61.75837932411845, -2.586726672473039]}}, {"type": "Feature", "properties": {"norad_id": 36269, "name": "FENGYUN 1C DEB", "group": "fengyun-1c-debris", "lat": 4.660112315407508, "lon": -67.96739533540061, "alt_km": 818.509401370834, "timestamp": "2025-12-16T15:45:51.334396+00:00", "meta": {"OBJECT_NAME": "FENGYUN 1C DEB", "OBJECT_ID": "1999-025DWW", "EPOCH": "2025-12-14T01:28:51.707712", "MEAN_MOTION": 14.27043075, "ECCENTRICITY": 0.02331074, "INCLINATION": 99.1079, "RA_OF_ASC_NODE": 290.0784, "ARG_OF_PERICENTER": 275.9651, "MEAN_ANOMALY": 81.5008, "EPHEMERIS_TYPE": 0, "CLASSIFICATION_TYPE": "U", "NORAD_CAT_ID": 36269, "ELEMENT_SET_NO": 999, "REV_AT_EPOCH": 87735, "BSTAR": 0.00079666975, "MEAN_MOTION_DOT": 2.532e-05, "MEAN_MOTION_DDOT": 0}, "tle": {"line1": "1 36269U 99025DWW 25348.06170958  .00002532  00000+0  79667-3 0  9998", "line2": "2 36269  99.1079 290.0784 0233107 275.9651  81.5008 14.27043075877359"}}, "geometry": {"type": "Point", "coordinates": [-67.96739533540061, 4.660112315407508]}}, {"type": "Feature", "properties": {"norad_id": 36272, "name": "FENGYUN 1C DEB", "group": "fengyun-1c-debris", "lat": -47.72689396387479, "lon": -122.74850934207522, "alt_km": 769.756573303398, "timestamp": "2025-12-16T15:45:51.334406+00:00", "meta": {"OBJECT_NAME": "FENGYUN 1C DEB", "OBJECT_ID": "1999-025DWZ", "EPOCH": "2025-12-15T09:29:34.780416", "MEAN_MOTION": 14.17259115, "ECCENTRICITY": 0.01679127, "INCLINATION": 99.1362, "RA_OF_ASC_NODE": 225.7589, "ARG_OF_PERICENTER": 260.5869, "MEAN_ANOMALY": 97.6289, "EPHEMERIS_TYPE": 0, "CLASSIFICATION_TYPE": "U", "NORAD_CAT_ID": 36272, "ELEMENT_SET_NO": 999, "REV_AT_EPOCH": 63654, "BSTAR": 0.00052291356, "MEAN_MOTION_DOT": 1.164e-05, "MEAN_MOTION_DDOT": 0}, "tle": {"line1": "1 36272U 99025DWZ 25349.39554144  .00001164  00000+0  52291-3 0  9996", "line2": "2 36272  99.1362 225.7589 0167912 260.5869  97.6289 14.17259115636543"}}, "geometry": {"type": "Point", "coordinates": [-122.74850934207522, -47.72689396387479]}}, {"type": "Feature", "properties": {"norad_id": 36273, "name": "FENGYUN 1C DEB", "group": "fengyun-1c-debris", "lat": -73.44449131700122, "lon": -104.86127673945191, "alt_km": 803.0325796949683, "timestamp": "2025-12-16T15:45:51.334415+00:00", "meta": {"OBJECT_NAME": "FENGYUN 1C DEB", "OBJECT_ID": "1999-025DXA", "EPOCH": "2025-12-10T21:07:00.418080", "MEAN_MOTION": 14.16564043, "ECCENTRICITY": 0.0096501, "INCLINATION": 99.6045, "RA_OF_ASC_NODE": 214.1863, "ARG_OF_PERICENTER": 353.8475, "MEAN_ANOMALY": 6.1504, "EPHEMERIS_TYPE": 0, "CLASSIFICATION_TYPE": "U", "NORAD_CAT_ID": 36273, "ELEMENT_SET_NO": 999, "REV_AT_EPOCH": 66207, "BSTAR": 0.00042955, "MEAN_MOTION_DOT": 8.45e-06, "MEAN_MOTION_DDOT": 0}, "tle": {"line1": "1 36273U 99025DXA 25344.87986595  .00000845  00000+0  42955-3 0  9995", "line2": "2 36273  99.6045 214.1863 0096501 353.8475   6.1504 14.16564043662078"}}, "geometry": {"type": "Point", "coordinates": [-104.86127673945191, -73.44449131700122]}}]}